{
  "type": "FeatureCollection",
  "features": [
    {
      "type": "Feature",
      "properties": {
        "norad_id": 41589,
        "name": "EUTELSAT 117 WEST B (WAAS/PRN 131)",
        "group": "gnss",
        "lat": -0.01650105263934958,
        "lon": -122.8114399307582,
        "alt_km": 35785.55803500325,
        "timestamp": "2025-12-17T17:50:19.493703+00:00",
        "meta_object_name": "EUTELSAT 117 WEST B (WAAS/PRN 131)",
        "meta_object_id": "2016-038B",
        "meta_epoch": "2025-12-16T07:41:38.671008",
        "meta_mean_motion": 1.00271538,
        "meta_eccentricity": 1.358e-05,
        "meta_inclination": 0.0424,
        "meta_ra_of_asc_node": 167.2106,
        "meta_arg_of_pericenter": 90.3228,
        "meta_mean_anomaly": 186.0956,
        "meta_ephemeris_type": 0,
        "meta_classification_type": "U",
        "meta_norad_cat_id": 41589,
        "meta_element_set_no": 999,
        "meta_rev_at_epoch": 3482,
        "meta_bstar": 0,
        "meta_mean_motion_dot": 1.2e-07,
        "meta_mean_motion_ddot": 0,
        "tle_line1": "1 41589U 16038B   25350.32058647  .00000012  00000+0  00000+0 0  9996",
        "tle_line2": "2 41589   0.0424 167.2106 0000135  90.3228 186.0956  1.00271538 34824"
      },
      "geometry": {
        "type": "Point",
        "coordinates": [
          -122.8114399307582,
          -0.01650105263934958
        ]
      }
    },
    {
      "type": "Feature",
      "properties": {
        "norad_id": 41859,
        "name": "GSAT0207 (GALILEO 15)",
        "group": "gnss",
        "lat": 20.523876745348453,
        "lon": -88.86803130188623,
        "alt_km": 23226.169140157574,
        "timestamp": "2025-12-17T17:50:19.493717+00:00",
        "meta_object_name": "GSAT0207 (GALILEO 15)",
        "meta_object_id": "2016-069A",
        "meta_epoch": "2025-12-13T09:14:27.730752",
        "meta_mean_motion": 1.70474447,
        "meta_eccentricity": 0.00022423,
        "meta_inclination": 55.3826,
        "meta_ra_of_asc_node": 106.2323,
        "meta_arg_of_pericenter": 321.9482,
        "meta_mean_anomaly": 38.0041,
        "meta_ephemeris_type": 0,
        "meta_classification_type": "U",
        "meta_norad_cat_id": 41859,
        "meta_element_set_no": 999,
        "meta_rev_at_epoch": 5623,
        "meta_bstar": 0,
        "meta_mean_motion_dot": 0,
        "meta_mean_motion_ddot": 0,
        "tle_line1": "1 41859U 16069A   25347.38504318  .00000000  00000+0  00000+0 0  9990",
        "tle_line2": "2 41859  55.3826 106.2323 0002242 321.9482  38.0041  1.70474447 56234"
      },
      "geometry": {
        "type": "Point",
        "coordinates": [
          -88.86803130188623,
          20.523876745348453
        ]
      }
    },
    {
      "type": "Feature",
      "properties": {
        "norad_id": 41860,
        "name": "GSAT0212 (GALILEO 16)",
        "group": "gnss",
        "lat": -48.03818269222516,
        "lon": -23.790553239857015,
        "alt_km": 23232.34166006951,
        "timestamp": "2025-12-17T17:50:19.493731+00:00",
        "meta_object_name": "GSAT0212 (GALILEO 16)",
        "meta_object_id": "2016-069B",
        "meta_epoch": "2025-12-15T14:02:25.791936",
        "meta_mean_motion": 1.70474669,
        "meta_eccentricity": 0.00021144,
        "meta_inclination": 55.3815,
        "meta_ra_of_asc_node": 106.1668,
        "meta_arg_of_pericenter": 24.9623,
        "meta_mean_anomaly": 335.0097,
        "meta_ephemeris_type": 0,
        "meta_classification_type": "U",
        "meta_norad_cat_id": 41860,
        "meta_element_set_no": 999,
        "meta_rev_at_epoch": 5652,
        "meta_bstar": 0,
        "meta_mean_motion_dot": -8e-08,
        "meta_mean_motion_ddot": 0,
        "tle_line1": "1 41860U 16069B   25349.58502074 -.00000008  00000+0  00000+0 0  9992",
        "tle_line2": "2 41860  55.3815 106.1668 0002114  24.9623 335.0097  1.70474669 56529"
      },
      "geometry": {
        "type": "Point",
        "coordinates": [
          -23.790553239857015,
          -48.03818269222516
        ]
      }
    },
    {
      "type": "Feature",
      "properties": {
        "norad_id": 41861,
        "name": "GSAT0213 (GALILEO 17)",
        "group": "gnss",
        "lat": 15.550485864878963,
        "lon": 117.17178237010455,
        "alt_km": 23221.124408028234,
        "timestamp": "2025-12-17T17:50:19.493742+00:00",
        "meta_object_name": "GSAT0213 (GALILEO 17)",
        "meta_object_id": "2016-069C",
        "meta_epoch": "2025-12-16T12:56:22.787232",
        "meta_mean_motion": 1.70474953,
        "meta_eccentricity": 0.00025393,
        "meta_inclination": 55.3843,
        "meta_ra_of_asc_node": 106.1481,
        "meta_arg_of_pericenter": 282.5474,
        "meta_mean_anomaly": 77.384,
        "meta_ephemeris_type": 0,
        "meta_classification_type": "U",
        "meta_norad_cat_id": 41861,
        "meta_element_set_no": 999,
        "meta_rev_at_epoch": 5640,
        "meta_bstar": 0,
        "meta_mean_motion_dot": -9e-08,
        "meta_mean_motion_ddot": 0,
        "tle_line1": "1 41861U 16069C   25350.53915263 -.00000009  00000+0  00000+0 0  9999",
        "tle_line2": "2 41861  55.3843 106.1481 0002539 282.5474  77.3840  1.70474953 56406"
      },
      "geometry": {
        "type": "Point",
        "coordinates": [
          117.17178237010455,
          15.550485864878963
        ]
      }
    },
    {
      "type": "Feature",
      "properties": {
        "norad_id": 41862,
        "name": "GSAT0214 (GALILEO 18)",
        "group": "gnss",
        "lat": -50.92912994767637,
        "lon": 47.89649248075568,
        "alt_km": 23223.511317918452,
        "timestamp": "2025-12-17T17:50:19.493755+00:00",
        "meta_object_name": "GSAT0214 (GALILEO 18)",
        "meta_object_id": "2016-069D",
        "meta_epoch": "2025-12-14T22:12:36.299232",
        "meta_mean_motion": 1.70474813,
        "meta_eccentricity": 0.00014239,
        "meta_inclination": 55.3815,
        "meta_ra_of_asc_node": 106.1855,
        "meta_arg_of_pericenter": 290.4821,
        "meta_mean_anomaly": 69.4663,
        "meta_ephemeris_type": 0,
        "meta_classification_type": "U",
        "meta_norad_cat_id": 41862,
        "meta_element_set_no": 999,
        "meta_rev_at_epoch": 5650,
        "meta_bstar": 0,
        "meta_mean_motion_dot": -6e-08,
        "meta_mean_motion_ddot": 0,
        "tle_line1": "1 41862U 16069D   25348.92542013 -.00000006  00000+0  00000+0 0  9996",
        "tle_line2": "2 41862  55.3815 106.1855 0001423 290.4821  69.4663  1.70474813 56507"
      },
      "geometry": {
        "type": "Point",
        "coordinates": [
          47.89649248075568,
          -50.92912994767637
        ]
      }
    },
    {
      "type": "Feature",
      "properties": {
        "norad_id": 42709,
        "name": "SES-15 (WAAS/PRN 133)",
        "group": "gnss",
        "lat": -0.03797871658151621,
        "lon": -135.01058486275406,
        "alt_km": 35787.139704578854,
        "timestamp": "2025-12-17T17:50:19.493767+00:00",
        "meta_object_name": "SES-15 (WAAS/PRN 133)",
        "meta_object_id": "2017-026A",
        "meta_epoch": "2025-12-16T10:54:44.591328",
        "meta_mean_motion": 1.00268582,
        "meta_eccentricity": 2.178e-05,
        "meta_inclination": 0.018,
        "meta_ra_of_asc_node": 345.8628,
        "meta_arg_of_pericenter": 345.8397,
        "meta_mean_anomaly": 148.1495,
        "meta_ephemeris_type": 0,
        "meta_classification_type": "U",
        "meta_norad_cat_id": 42709,
        "meta_element_set_no": 999,
        "meta_rev_at_epoch": 560,
        "meta_bstar": 0,
        "meta_mean_motion_dot": 8.4e-07,
        "meta_mean_motion_ddot": 0,
        "tle_line1": "1 42709U 17026A   25350.45468277  .00000084  00000+0  00000+0 0  9996",
        "tle_line2": "2 42709   0.0180 345.8628 0000217 345.8397 148.1495  1.00268582  5603"
      },
      "geometry": {
        "type": "Point",
        "coordinates": [
          -135.01058486275406,
          -0.03797871658151621
        ]
      }
    },
    {
      "type": "Feature",
      "properties": {
        "norad_id": 42738,
        "name": "QZS-2 (QZSS/PRN 194)",
        "group": "gnss",
        "lat": -36.09015079108026,
        "lon": 127.10793059636427,
        "alt_km": 32815.7275852572,
        "timestamp": "2025-12-17T17:50:19.493779+00:00",
        "meta_object_name": "QZS-2 (QZSS/PRN 194)",
        "meta_object_id": "2017-028A",
        "meta_epoch": "2025-12-16T13:59:18.709152",
        "meta_mean_motion": 1.00282034,
        "meta_eccentricity": 0.07568845,
        "meta_inclination": 39.7078,
        "meta_ra_of_asc_node": 245.8268,
        "meta_arg_of_pericenter": 269.5176,
        "meta_mean_anomaly": 281.8987,
        "meta_ephemeris_type": 0,
        "meta_classification_type": "U",
        "meta_norad_cat_id": 42738,
        "meta_element_set_no": 999,
        "meta_rev_at_epoch": 579,
        "meta_bstar": 0,
        "meta_mean_motion_dot": -1.46e-06,
        "meta_mean_motion_ddot": 0,
        "tle_line1": "1 42738U 17028A   25350.58285543 -.00000146  00000+0  00000+0 0  9997",
        "tle_line2": "2 42738  39.7078 245.8268 0756884 269.5176 281.8987  1.00282034  5793"
      },
      "geometry": {
        "type": "Point",
        "coordinates": [
          127.10793059636427,
          -36.09015079108026
        ]
      }
    }
  ]
}